{
"type": "FeatureCollection",
"name": "Drainage system",
"crs": { "type": "name", "properties": { "name": "urn:ogc:def:crs:OGC:1.3:CRS84" } },
"features": [
{ "type": "Feature", "properties": { "id": 1, "drainage": "1346.29" }, "geometry": { "type": "MultiLineString", "coordinates": [ [ [ 124.223826933030267, 7.350516202927945 ], [ 124.220861186322978, 7.35023904720118 ], [ 124.220741400184096, 7.350307679110659 ], [ 124.220620729256069, 7.350490009502148 ], [ 124.220551542873153, 7.35068544744357 ], [ 124.220468638548212, 7.351352321856573 ], [ 124.220481475151175, 7.352027296228961 ], [ 124.220680187889783, 7.352577967330022 ], [ 124.221008866882343, 7.353043363745134 ], [ 124.221525488336852, 7.353463397071809 ], [ 124.221924239246263, 7.353619656051994 ], [ 124.222322399500314, 7.353679594991287 ], [ 124.22294907009956, 7.353732609353412 ], [ 124.223577215722173, 7.353768244032671 ], [ 124.223861010295366, 7.350527837507363 ] ] ] } },
{ "type": "Feature", "properties": { "id": 3, "drainage": "358.61" }, "geometry": { "type": "MultiLineString", "coordinates": [ [ [ 124.221621967193045, 7.353462807332801 ], [ 124.221931002974202, 7.350338307161837 ] ] ] } },
{ "type": "Feature", "properties": { "id": 2, "drainage": "365.58" }, "geometry": { "type": "MultiLineString", "coordinates": [ [ [ 124.222682941226097, 7.353666336873737 ], [ 124.222990640937255, 7.350454206961669 ] ] ] } },
{ "type": "Feature", "properties": { "id": 4, "drainage": "284.04" }, "geometry": { "type": "MultiLineString", "coordinates": [ [ [ 124.220944546841267, 7.352871638126632 ], [ 124.22124267367731, 7.35028882552018 ] ] ] } },
{ "type": "Feature", "properties": { "id": 5, "drainage": "1,115.50" }, "geometry": { "type": "MultiLineString", "coordinates": [ [ [ 124.223901871540036, 7.350356258580034 ], [ 124.220997789337247, 7.350075568270674 ], [ 124.220825337837837, 7.349938453246337 ], [ 124.220768984619525, 7.349776153249127 ], [ 124.220722810275277, 7.349597210806809 ], [ 124.220790372508546, 7.349007804612275 ], [ 124.221055606669509, 7.347122352694386 ], [ 124.221309043817499, 7.346924999551327 ], [ 124.221610130029973, 7.346889209882317 ], [ 124.221843505783582, 7.347031479216084 ], [ 124.222049148719876, 7.347293927233973 ], [ 124.222140169525929, 7.347564181493659 ], [ 124.222213045634575, 7.347841652431796 ], [ 124.222203901297988, 7.34815594328118 ], [ 124.222154779544283, 7.348528114538185 ], [ 124.222052848211234, 7.349315904027624 ], [ 124.221921855489668, 7.350136242093929 ] ] ] } },
{ "type": "Feature", "properties": { "id": 6, "drainage": "352.19" }, "geometry": { "type": "MultiLineString", "coordinates": [ [ [ 124.221271291504522, 7.35005494820475 ], [ 124.221665892504106, 7.346955190110926 ] ] ] } },
{ "type": "Feature", "properties": { "id": 7, "drainage": "324.31" }, "geometry": { "type": "MultiLineString", "coordinates": [ [ [ 124.222184321080192, 7.353860453187749 ], [ 124.221581695675084, 7.353730705886868 ], [ 124.221186632513408, 7.353530999625574 ], [ 124.220861346702492, 7.353232174645385 ], [ 124.220495787104568, 7.352684891782993 ], [ 124.220280404625427, 7.352124058453095 ] ] ] } },
{ "type": "Feature", "properties": { "id": null, "drainage": null }, "geometry": { "type": "MultiLineString", "coordinates": [ [ [ 124.223899512610004, 7.350487335738901 ], [ 124.223938898823207, 7.350333135592387 ], [ 124.224173898444349, 7.350353015517565 ], [ 124.224438397991733, 7.350025319714472 ] ] ] } }
]
}
