{
"type": "FeatureCollection",
"name": "Informal Settlers",
"crs": { "type": "name", "properties": { "name": "urn:ogc:def:crs:OGC:1.3:CRS84" } },
"features": [
{ "type": "Feature", "properties": { "id": null, "Specs": null }, "geometry": { "type": "MultiPolygon", "coordinates": [ [ [ [ 124.221474168449404, 7.35404424006523 ], [ 124.221481806896989, 7.354021941264949 ], [ 124.221521353141043, 7.353962188077576 ], [ 124.221461113964466, 7.353859575603115 ], [ 124.221375638632935, 7.35378350940503 ], [ 124.221276820103569, 7.353729259360566 ], [ 124.221216581017984, 7.353626646837786 ], [ 124.221180515005742, 7.353577705624553 ], [ 124.221137293963807, 7.353545367847994 ], [ 124.220983844951121, 7.353457814688821 ], [ 124.220884639457196, 7.353340432996163 ], [ 124.220786884300523, 7.353205965205 ], [ 124.220745113606611, 7.353156541311845 ], [ 124.220654126554322, 7.352942338492428 ], [ 124.220592437441695, 7.352856811909489 ], [ 124.220526590310897, 7.352684889702847 ], [ 124.220392286161356, 7.352507175837282 ], [ 124.220341619701699, 7.352359482917252 ], [ 124.220285635494335, 7.352274438905048 ], [ 124.220247249003506, 7.352185147444859 ], [ 124.220176858225955, 7.352202137189741 ], [ 124.219976224998376, 7.352196635439514 ], [ 124.219931553854636, 7.352181383578769 ], [ 124.219862129939187, 7.352186982562353 ], [ 124.219779266197747, 7.352283224600018 ], [ 124.219783810978399, 7.352432751814545 ], [ 124.219796090832972, 7.352491153317972 ], [ 124.219835927598837, 7.352563358755702 ], [ 124.219877698139854, 7.352612782760521 ], [ 124.219957951686354, 7.352682671328002 ], [ 124.220016836531954, 7.352733543241821 ], [ 124.220035788067321, 7.352781036659695 ], [ 124.220105115582925, 7.352844264552824 ], [ 124.220187206480901, 7.352960198556389 ], [ 124.220243674214089, 7.353039547210947 ], [ 124.220302559139768, 7.353090419073357 ], [ 124.220324798320306, 7.353166871888861 ], [ 124.220342977174553, 7.353426541373027 ], [ 124.220381750840374, 7.353578964352499 ], [ 124.220399639180641, 7.353706675361564 ], [ 124.220472737951212, 7.353793167221432 ], [ 124.220573490147629, 7.353824636032919 ], [ 124.220631408363587, 7.353886898538865 ], [ 124.220628315040571, 7.354058724477581 ], [ 124.220520407719349, 7.354043859123916 ], [ 124.22045137057313, 7.354112589794403 ], [ 124.220327993390995, 7.354279975797132 ], [ 124.220170193302025, 7.354243680586181 ], [ 124.219970429559297, 7.354295615188475 ], [ 124.219866390718963, 7.354573626070324 ], [ 124.219900330015903, 7.354783002659611 ], [ 124.219979617137938, 7.35486428186476 ], [ 124.220057453982434, 7.354962647120078 ], [ 124.220202490868274, 7.354946236220377 ], [ 124.220295314181399, 7.35486804538475 ], [ 124.220297344315796, 7.354776437052507 ], [ 124.220396839226424, 7.354687338125447 ], [ 124.220467230365912, 7.35467034828483 ], [ 124.220556960263622, 7.354763983348744 ], [ 124.220632863485037, 7.354885129909497 ], [ 124.220627449426317, 7.355016605722376 ], [ 124.220777514993145, 7.355144026410695 ], [ 124.220845005626671, 7.355161208634725 ], [ 124.220948754998687, 7.355089678282387 ], [ 124.221003965489075, 7.355048459055642 ], [ 124.221096401508532, 7.354907136542199 ], [ 124.221189417163714, 7.354691291777792 ], [ 124.221195894183438, 7.354479598387724 ], [ 124.221103747127145, 7.354414440240134 ], [ 124.220979692228099, 7.354386736430718 ], [ 124.220955035722966, 7.354338760457886 ], [ 124.22091925863802, 7.35408333854857 ], [ 124.220899919842907, 7.353972713656115 ], [ 124.220984524619197, 7.353991343770134 ], [ 124.221101037237887, 7.353972519503959 ], [ 124.221126660576004, 7.354009104759493 ], [ 124.22119647185913, 7.354066637068452 ], [ 124.221312404792656, 7.354122334984839 ], [ 124.221474168449404, 7.35404424006523 ] ] ] ] } },
{ "type": "Feature", "properties": { "id": null, "Specs": null }, "geometry": { "type": "MultiPolygon", "coordinates": [ [ [ [ 124.220199108212583, 7.355324542902932 ], [ 124.220191953119183, 7.355341146338032 ], [ 124.220077857250018, 7.355331493649917 ], [ 124.220053104335534, 7.355352344534258 ], [ 124.219939395451973, 7.355405823369142 ], [ 124.219849956032064, 7.355444146661708 ], [ 124.219787106819268, 7.355507664559173 ], [ 124.219772700129752, 7.355609698340373 ], [ 124.21975645614819, 7.355665686629888 ], [ 124.219796100363155, 7.355875545850062 ], [ 124.219921026110114, 7.355960686130164 ], [ 124.220065579891923, 7.35594997057757 ], [ 124.220183156346721, 7.355850928841873 ], [ 124.220246488966509, 7.355781715534958 ], [ 124.22032084411056, 7.355650335936379 ], [ 124.220356232508465, 7.355504187203329 ], [ 124.220199108212583, 7.355324542902932 ] ] ] ] } },
{ "type": "Feature", "properties": { "id": null, "Specs": null }, "geometry": { "type": "MultiPolygon", "coordinates": [ [ [ [ 124.218943571761855, 7.356239375070754 ], [ 124.218929841484567, 7.356198059624516 ], [ 124.218837210836057, 7.356138596377292 ], [ 124.218754442856934, 7.356166011423459 ], [ 124.218738198732893, 7.356221999698992 ], [ 124.218769913714283, 7.356322199330664 ], [ 124.218866411994341, 7.356336099726344 ], [ 124.218943571761855, 7.356239375070754 ] ] ] ] } },
{ "type": "Feature", "properties": { "id": null, "Specs": null }, "geometry": { "type": "MultiPolygon", "coordinates": [ [ [ [ 124.219474890763379, 7.355733645602573 ], [ 124.219403532513212, 7.355762026034305 ], [ 124.219384967783924, 7.355777664176246 ], [ 124.219278413827411, 7.355814539444562 ], [ 124.219213243793988, 7.355837707137141 ], [ 124.219210246576566, 7.355940706211984 ], [ 124.219234419581838, 7.355994377650926 ], [ 124.219304810993478, 7.35597738795276 ], [ 124.219344261168047, 7.355986461814334 ], [ 124.219388449260279, 7.35600740902887 ], [ 124.219485334411615, 7.35608444086688 ], [ 124.219599913928192, 7.356088398319256 ], [ 124.219556015289371, 7.355860970360339 ], [ 124.219474890763379, 7.355733645602573 ] ] ] ] } },
{ "type": "Feature", "properties": { "id": null, "Specs": null }, "geometry": { "type": "MultiPolygon", "coordinates": [ [ [ [ 124.219733343427848, 7.354516479846912 ], [ 124.219702498812552, 7.354473716499967 ], [ 124.219680163122547, 7.354466090575274 ], [ 124.219616056706812, 7.354409040652365 ], [ 124.219569064651068, 7.35435343864917 ], [ 124.219397921212078, 7.354338959301765 ], [ 124.219348995407174, 7.354306138698557 ], [ 124.219281021482416, 7.354294651575122 ], [ 124.219189164954415, 7.354361451497526 ], [ 124.219065980394433, 7.354391183360985 ], [ 124.219011253206617, 7.35442670700867 ], [ 124.219000617315714, 7.354552004873931 ], [ 124.218869697465635, 7.354672862418193 ], [ 124.218939025183673, 7.354736090465378 ], [ 124.21901744185287, 7.354759933646115 ], [ 124.21914913540445, 7.354765339220229 ], [ 124.21933139825677, 7.354648825421921 ], [ 124.219341357492326, 7.35466687678572 ], [ 124.21932501691343, 7.354791691997256 ], [ 124.219302584652581, 7.354852892987908 ], [ 124.219394248164079, 7.354923746890045 ], [ 124.219547987057993, 7.354804819778122 ], [ 124.219559880074456, 7.354800089707262 ], [ 124.219736534514183, 7.354614266194338 ], [ 124.219733343427848, 7.354516479846912 ] ] ] ] } },
{ "type": "Feature", "properties": { "id": null, "Specs": null }, "geometry": { "type": "MultiPolygon", "coordinates": [ [ [ [ 124.219630172235398, 7.35383660909981 ], [ 124.219624950903125, 7.353830431098741 ], [ 124.219611704119515, 7.353783420310294 ], [ 124.219549918493428, 7.353766720502792 ], [ 124.219486682538374, 7.353767106757219 ], [ 124.219469471659636, 7.353834485749905 ], [ 124.219504570645029, 7.353894817841793 ], [ 124.219608126954924, 7.353960941664051 ], [ 124.219630172235398, 7.35383660909981 ] ] ] ] } },
{ "type": "Feature", "properties": { "id": null, "Specs": null }, "geometry": { "type": "MultiPolygon", "coordinates": [ [ [ [ 124.220366860846596, 7.353686693484997 ], [ 124.220342204452763, 7.35363871745981 ], [ 124.220300433752854, 7.353589293524704 ], [ 124.220239615013895, 7.353561203099185 ], [ 124.220184017616276, 7.353539290658117 ], [ 124.220113626629796, 7.353556280427552 ], [ 124.220103087496398, 7.353612751353638 ], [ 124.220101927698749, 7.353761795898061 ], [ 124.220126584077917, 7.353809771939339 ], [ 124.22023439490593, 7.35389346431137 ], [ 124.220282933705619, 7.353863153260886 ], [ 124.220366860846596, 7.353686693484997 ] ] ] ] } },
{ "type": "Feature", "properties": { "id": null, "Specs": null }, "geometry": { "type": "MultiPolygon", "coordinates": [ [ [ [ 124.220086937939584, 7.35292303426383 ], [ 124.220070790527686, 7.352910195629985 ], [ 124.220072240839983, 7.352893109560364 ], [ 124.220075624901995, 7.352853242064594 ], [ 124.220077075214277, 7.352836155994976 ], [ 124.220023895108227, 7.352785766733931 ], [ 124.219936873382281, 7.352795613176875 ], [ 124.219897810420477, 7.352849670888634 ], [ 124.219974679947839, 7.352959426940717 ], [ 124.220086937939584, 7.35292303426383 ] ] ] ] } },
{ "type": "Feature", "properties": { "id": null, "Specs": null }, "geometry": { "type": "MultiPolygon", "coordinates": [ [ [ [ 124.219876248659943, 7.352968308094391 ], [ 124.219863968771847, 7.352909906598252 ], [ 124.219797928829109, 7.352875638092203 ], [ 124.219732372337191, 7.352835674217821 ], [ 124.219668266184328, 7.352778624260974 ], [ 124.219542278002166, 7.352773701391262 ], [ 124.219517041735173, 7.352800247586264 ], [ 124.219411938802594, 7.352820036700619 ], [ 124.219346382344881, 7.352780072762672 ], [ 124.219281309345718, 7.352734413455785 ], [ 124.219240022296347, 7.352679294029272 ], [ 124.219201635951606, 7.352590002452478 ], [ 124.219216042790933, 7.352487968670808 ], [ 124.219213335358901, 7.352384486931969 ], [ 124.219111713298147, 7.352295581514086 ], [ 124.219072650258354, 7.352349639164329 ], [ 124.219045963625263, 7.35239327140688 ], [ 124.219026238781495, 7.352557954123268 ], [ 124.219056503076217, 7.3526752398554 ], [ 124.219049251314416, 7.352760670219219 ], [ 124.219023918363519, 7.352856043336567 ], [ 124.219017633500243, 7.352930082985475 ], [ 124.218995201246187, 7.352991283957259 ], [ 124.218986015672286, 7.353099495752199 ], [ 124.219102528234501, 7.353080672029229 ], [ 124.219201926487216, 7.35306040032409 ], [ 124.219240022661324, 7.353017733371359 ], [ 124.219380901168364, 7.35291492717682 ], [ 124.219406524306862, 7.352951512565514 ], [ 124.219470147015812, 7.353014257917924 ], [ 124.219566257679929, 7.352965026704419 ], [ 124.21962997696275, 7.352958945100435 ], [ 124.219659854558131, 7.353013099187423 ], [ 124.219781975276049, 7.353063584867304 ], [ 124.219876248659943, 7.352968308094391 ] ] ] ] } },
{ "type": "Feature", "properties": { "id": null, "Specs": null }, "geometry": { "type": "MultiPolygon", "coordinates": [ [ [ [ 124.219632102619656, 7.352121631214516 ], [ 124.219657338281223, 7.351756645715967 ], [ 124.219680543590499, 7.351483268578122 ], [ 124.219625139672232, 7.351323702149644 ], [ 124.219522550928531, 7.351246187509252 ], [ 124.219464440002028, 7.35132157864914 ], [ 124.219448679494349, 7.351371871561365 ], [ 124.219472272126069, 7.351500065329428 ], [ 124.219545080514123, 7.35179303824469 ], [ 124.219520617988692, 7.351945847588941 ], [ 124.219504857477247, 7.351996140504353 ], [ 124.219484359103348, 7.352034560055537 ], [ 124.219480298341637, 7.352217776784978 ], [ 124.219548271941704, 7.352229263930321 ], [ 124.219626301292749, 7.352189975499015 ], [ 124.219629201956209, 7.352155803356763 ], [ 124.219632102619656, 7.352121631214516 ] ] ] ] } },
{ "type": "Feature", "properties": { "id": null, "Specs": null }, "geometry": { "type": "MultiPolygon", "coordinates": [ [ [ [ 124.219337098783171, 7.351603354134888 ], [ 124.219365719142303, 7.351536940456519 ], [ 124.219354406285177, 7.351467148210585 ], [ 124.21939066517055, 7.351378435755639 ], [ 124.219421896009251, 7.351145891409982 ], [ 124.219404394976607, 7.351081311868615 ], [ 124.219290783643942, 7.351065963439146 ], [ 124.219256942001365, 7.351126199098853 ], [ 124.219254428096278, 7.351223502830753 ], [ 124.219247176350663, 7.351308933193075 ], [ 124.219240214751409, 7.351526322085932 ], [ 124.219337098783171, 7.351603354134888 ] ] ] ] } },
{ "type": "Feature", "properties": { "id": null, "Specs": null }, "geometry": { "type": "MultiPolygon", "coordinates": [ [ [ [ 124.220298974709848, 7.350898865841629 ], [ 124.220241056989224, 7.350836603213308 ], [ 124.220164961679856, 7.350853110279824 ], [ 124.220159160420025, 7.350921454558877 ], [ 124.220298974709848, 7.350898865841629 ] ] ] ] } },
{ "type": "Feature", "properties": { "id": null, "Specs": null }, "geometry": { "type": "MultiPolygon", "coordinates": [ [ [ [ 124.220319665975836, 7.35072279243365 ], [ 124.22028978850669, 7.35066863837321 ], [ 124.220275574930753, 7.350633018307012 ], [ 124.220236125241456, 7.350623944450695 ], [ 124.220093023493604, 7.350617573706719 ], [ 124.220073008658147, 7.350650297911692 ], [ 124.220061986087643, 7.350712464190227 ], [ 124.220120870646156, 7.350763336135491 ], [ 124.220227810284513, 7.350789592433014 ], [ 124.220319665975836, 7.35072279243365 ] ] ] ] } },
{ "type": "Feature", "properties": { "id": null, "Specs": null }, "geometry": { "type": "MultiPolygon", "coordinates": [ [ [ [ 124.220400059971652, 7.350384881758679 ], [ 124.220404023959091, 7.350270491989455 ], [ 124.220448984402154, 7.350079263080892 ], [ 124.22054944427704, 7.349640334342779 ], [ 124.220573326515975, 7.349562047278197 ], [ 124.220571197913912, 7.349045604080535 ], [ 124.220606972096377, 7.34862414771467 ], [ 124.22068055242454, 7.348366505107713 ], [ 124.220713619853413, 7.348180006278709 ], [ 124.220712555593607, 7.347921784679053 ], [ 124.220720676615358, 7.347555351307522 ], [ 124.220603488346327, 7.347379085155563 ], [ 124.220582313695346, 7.347560853914747 ], [ 124.220518595899762, 7.347905374784816 ], [ 124.220386615409126, 7.348444889324504 ], [ 124.220379363840394, 7.348530319672451 ], [ 124.220311391474567, 7.348857271832111 ], [ 124.220280161072367, 7.349089816160433 ], [ 124.220316033469388, 7.34927641137875 ], [ 124.220291571210282, 7.34942922071577 ], [ 124.220237715017291, 7.349522180616369 ], [ 124.220143829210585, 7.349680588917299 ], [ 124.220069474713554, 7.34981196836579 ], [ 124.22008339855816, 7.350054069228635 ], [ 124.220094905240614, 7.350324646869494 ], [ 124.22029060672898, 7.350455929190658 ], [ 124.220400059971652, 7.350384881758679 ] ] ] ] } },
{ "type": "Feature", "properties": { "id": null, "Specs": null }, "geometry": { "type": "MultiPolygon", "coordinates": [ [ [ [ 124.222870880543695, 7.350112070534515 ], [ 124.222815091260742, 7.350227812083042 ], [ 124.222836072670361, 7.350183697083428 ], [ 124.222840906715163, 7.350126743544356 ], [ 124.222841969655647, 7.350046525979003 ], [ 124.222791593966264, 7.35003079177174 ], [ 124.222655164044156, 7.350013513722902 ], [ 124.222404060077665, 7.350061105539387 ], [ 124.222334732792348, 7.349997877976584 ], [ 124.222324482601522, 7.349847868290752 ], [ 124.222322257981276, 7.349738691320172 ], [ 124.222342465045017, 7.349568313304493 ], [ 124.222357547025524, 7.349322930444563 ], [ 124.222376691034555, 7.349232770010286 ], [ 124.222451915327383, 7.349158826464897 ], [ 124.222493007546149, 7.349013160339198 ], [ 124.222519306461649, 7.348906396458959 ], [ 124.222520949116898, 7.348751656657313 ], [ 124.222527813073569, 7.348603094827002 ], [ 124.222498902366354, 7.348537550220693 ], [ 124.222498611405769, 7.348405591833205 ], [ 124.222515917961232, 7.348269385946928 ], [ 124.222536512158541, 7.348162139451404 ], [ 124.222594331211823, 7.347954789670586 ], [ 124.222657951138444, 7.347679095638131 ], [ 124.222649538435519, 7.347575131406436 ], [ 124.222574603114239, 7.34744259432545 ], [ 124.222508176746302, 7.347345194592211 ], [ 124.222361497664011, 7.347177906607773 ], [ 124.222290913239405, 7.346994111259148 ], [ 124.222173144870453, 7.346892367829576 ], [ 124.221982182540458, 7.346772959482521 ], [ 124.221847783677205, 7.346664072702802 ], [ 124.221536056428718, 7.346545919578245 ], [ 124.22142718411574, 7.346542444855748 ], [ 124.221318698773189, 7.346602101657079 ], [ 124.221338520476124, 7.346707031246666 ], [ 124.221462960168708, 7.346797866859842 ], [ 124.221726633019955, 7.346940635733135 ], [ 124.221893713448296, 7.347138331271445 ], [ 124.222082645946017, 7.347349347936771 ], [ 124.222218302749312, 7.347578802296972 ], [ 124.222268968991159, 7.347726495022758 ], [ 124.222249439868165, 7.348091962966201 ], [ 124.222218210484115, 7.348324507262368 ], [ 124.22217141349536, 7.348469690748908 ], [ 124.222122393993573, 7.348844136292441 ], [ 124.222090005182366, 7.349225725059584 ], [ 124.222081690858602, 7.349391372968935 ], [ 124.222047270032306, 7.349526130994934 ], [ 124.221978526678825, 7.350065259210945 ], [ 124.222000282481019, 7.350147407285713 ], [ 124.222079181793688, 7.350165554686604 ], [ 124.22229876558211, 7.350218548947863 ], [ 124.222525504356597, 7.350254939644585 ], [ 124.222702350838745, 7.350269900653313 ], [ 124.222870880543695, 7.350112070534515 ] ] ] ] } },
{ "type": "Feature", "properties": { "id": null, "Specs": null }, "geometry": { "type": "MultiPolygon", "coordinates": [ [ [ [ 124.221844804671193, 7.350151462546948 ], [ 124.22197552580225, 7.349491380127682 ], [ 124.221995153308796, 7.349395524341664 ], [ 124.222039242464888, 7.349146859222063 ], [ 124.22206757143671, 7.348948487050526 ], [ 124.222083911288735, 7.348823671868527 ], [ 124.222129354357179, 7.348626747567094 ], [ 124.222139506076545, 7.348507145117617 ], [ 124.222151687738531, 7.348295934369165 ], [ 124.222162322874212, 7.348170636564948 ], [ 124.222183883988578, 7.348051999362522 ], [ 124.222195485950806, 7.347915310849216 ], [ 124.22217953127614, 7.347764818506999 ], [ 124.22214394916638, 7.347710181943425 ], [ 124.222105175764483, 7.347557759092592 ], [ 124.221977255476801, 7.347575618088519 ], [ 124.22187969596628, 7.347641935661083 ], [ 124.221805922037731, 7.347698793023501 ], [ 124.221831255951017, 7.347941858967233 ], [ 124.221844406345568, 7.348057696580826 ], [ 124.221909382461135, 7.348172182480725 ], [ 124.221897296998009, 7.348314566355612 ], [ 124.221884728116109, 7.348462645585564 ], [ 124.221780593208194, 7.348471044363333 ], [ 124.221756807556275, 7.348480504562037 ], [ 124.22169009210738, 7.348589585381811 ], [ 124.221778274201071, 7.34876913333808 ], [ 124.221765414528292, 7.348785254148951 ], [ 124.221701212489819, 7.348797031309981 ], [ 124.221708948956959, 7.349044344720272 ], [ 124.221765707098768, 7.349255651653083 ], [ 124.221752171359171, 7.349415121594967 ], [ 124.22171504254996, 7.349446397967639 ], [ 124.221616999207782, 7.349518410906651 ], [ 124.221576873513627, 7.349652686293111 ], [ 124.221450789930131, 7.34971659071125 ], [ 124.221398867670317, 7.349786769294309 ], [ 124.221316391720165, 7.34994614303928 ], [ 124.221309043986636, 7.350100400267587 ], [ 124.221484440179353, 7.350132447838857 ], [ 124.221635567226514, 7.35017965089933 ], [ 124.221844804671193, 7.350151462546948 ] ] ] ] } },
{ "type": "Feature", "properties": { "id": null, "Specs": null }, "geometry": { "type": "MultiPolygon", "coordinates": [ [ [ [ 124.221094571220505, 7.345248654913121 ], [ 124.221166027672894, 7.344664685508349 ], [ 124.221223671737249, 7.344243440564281 ], [ 124.221321280281458, 7.343738167212106 ], [ 124.221494213520387, 7.343119078521349 ], [ 124.221664200155857, 7.342663633590369 ], [ 124.222063659631132, 7.341954448184535 ], [ 124.222426653362064, 7.341416996724606 ], [ 124.222398843237457, 7.341228898489763 ], [ 124.222167896480684, 7.34124213791095 ], [ 124.222079127492336, 7.341256480008579 ], [ 124.221822765587532, 7.341311273817031 ], [ 124.221591634830432, 7.341455611836713 ], [ 124.221322013265876, 7.341924479347545 ], [ 124.221326249503932, 7.342132435650272 ], [ 124.221373949564338, 7.34234406925539 ], [ 124.221403417166528, 7.342641569897761 ], [ 124.221339695261733, 7.342876555135167 ], [ 124.221279656599464, 7.343068147183661 ], [ 124.221122744963125, 7.343240616990591 ], [ 124.221092725576483, 7.343336413010641 ], [ 124.221050551482932, 7.343704335796263 ], [ 124.220952942624223, 7.344209609139473 ], [ 124.220918688039447, 7.344742095050107 ], [ 124.220903954787346, 7.344915667811853 ], [ 124.220896404241927, 7.345133553090444 ], [ 124.220929739226335, 7.345256561665525 ], [ 124.220987568762737, 7.345348863988753 ], [ 124.221044661361645, 7.345320915708689 ], [ 124.221094571220505, 7.345248654913121 ] ] ] ] } },
{ "type": "Feature", "properties": { "id": null, "Specs": null }, "geometry": { "type": "MultiPolygon", "coordinates": [ [ [ [ 124.224726712622228, 7.33959024122283 ], [ 124.22434566937639, 7.339437816675575 ], [ 124.224030375783471, 7.339542256669425 ], [ 124.223978625410879, 7.339636214210687 ], [ 124.22396223495241, 7.339700384691831 ], [ 124.223848972318109, 7.339745433412321 ], [ 124.223691325354864, 7.33979765328634 ], [ 124.223614526778633, 7.339670967821426 ], [ 124.223611210465805, 7.339452163396664 ], [ 124.22361599772573, 7.339266823131799 ], [ 124.223502548146925, 7.338798324820387 ], [ 124.223399414229675, 7.338724042167401 ], [ 124.223236426367023, 7.338710252777394 ], [ 124.222971962629401, 7.338731582804463 ], [ 124.222680242342733, 7.338816163834117 ], [ 124.222238610800446, 7.339248625973687 ], [ 124.222099749201476, 7.339466327686323 ], [ 124.222114851470891, 7.339675203266575 ], [ 124.22212074569093, 7.339992561801002 ], [ 124.222149292561312, 7.340300910664165 ], [ 124.22231393891839, 7.340424102623035 ], [ 124.222500317170116, 7.340549133117077 ], [ 124.222828135875929, 7.340555015565908 ], [ 124.222510078617333, 7.34069199956267 ], [ 124.222446541095053, 7.340795885988314 ], [ 124.222693511065685, 7.3409806736653 ], [ 124.222867365697141, 7.340995382411881 ], [ 124.223210100612476, 7.340696593028207 ], [ 124.223472169901612, 7.340445609953271 ], [ 124.223753208378781, 7.340229010201601 ], [ 124.224173844804724, 7.339914958616614 ], [ 124.224726712622228, 7.33959024122283 ] ] ] ] } },
{ "type": "Feature", "properties": { "id": null, "Specs": null }, "geometry": { "type": "MultiPolygon", "coordinates": [ [ [ [ 124.22327734990975, 7.345061833169472 ], [ 124.223269429434126, 7.344897270237828 ], [ 124.223225411125, 7.344642243877954 ], [ 124.223150636445425, 7.344362763095641 ], [ 124.222885431990122, 7.344263843106454 ], [ 124.222571238926079, 7.344226335554389 ], [ 124.222309167180995, 7.344477318511044 ], [ 124.222022049936953, 7.34515230418036 ], [ 124.222075092105541, 7.345429946644259 ], [ 124.222426304622843, 7.345547069621508 ], [ 124.222873653306564, 7.345563063569713 ], [ 124.22318176837571, 7.345414311229268 ], [ 124.22327734990975, 7.345061833169472 ] ] ] ] } },
{ "type": "Feature", "properties": { "id": null, "Specs": null }, "geometry": { "type": "MultiPolygon", "coordinates": [ [ [ [ 124.221796809623257, 7.344969355111425 ], [ 124.221650210280984, 7.344891395042145 ], [ 124.221532342026407, 7.344990684906271 ], [ 124.221526817150377, 7.345055774684557 ], [ 124.221574701556548, 7.345136309310014 ], [ 124.221796809623257, 7.344969355111425 ] ] ] ] } },
{ "type": "Feature", "properties": { "id": null, "Specs": null }, "geometry": { "type": "MultiPolygon", "coordinates": [ [ [ [ 124.222070665993826, 7.3440637974372 ], [ 124.222001970477564, 7.3439705759543 ], [ 124.221877840563479, 7.344014705076397 ], [ 124.221875078145246, 7.344047249963912 ], [ 124.221935486414765, 7.344238106129587 ], [ 124.222070665993826, 7.3440637974372 ] ] ] ] } },
{ "type": "Feature", "properties": { "id": null, "Specs": null }, "geometry": { "type": "MultiPolygon", "coordinates": [ [ [ [ 124.222147278765078, 7.34367693600852 ], [ 124.222122047226605, 7.343587391739991 ], [ 124.221999759037672, 7.343609824285248 ], [ 124.221976922603218, 7.343749932823687 ], [ 124.222147278765078, 7.34367693600852 ] ] ] ] } },
{ "type": "Feature", "properties": { "id": null, "Specs": null }, "geometry": { "type": "MultiPolygon", "coordinates": [ [ [ [ 124.22395709543018, 7.34208185921427 ], [ 124.223910315002186, 7.341859377786118 ], [ 124.223629642260704, 7.341813780208875 ], [ 124.223433134692286, 7.341808081553619 ], [ 124.223344919747532, 7.342073773215492 ], [ 124.22341969392366, 7.342353254036333 ], [ 124.223672372996901, 7.34234185242231 ], [ 124.22395709543018, 7.34208185921427 ] ] ] ] } },
{ "type": "Feature", "properties": { "id": null, "Specs": null }, "geometry": { "type": "MultiPolygon", "coordinates": [ [ [ [ 124.221193669334568, 7.346032351966918 ], [ 124.221218251831857, 7.346047337905316 ], [ 124.221326534333883, 7.34606617867642 ], [ 124.221427637791436, 7.346055373208139 ], [ 124.221446019755746, 7.34591496074914 ], [ 124.221459669940558, 7.345716070290255 ], [ 124.221469839440729, 7.345520111888312 ], [ 124.22145074960541, 7.345402341460161 ], [ 124.22128226217329, 7.345407445909643 ], [ 124.221193669334568, 7.346032351966918 ] ] ] ] } },
{ "type": "Feature", "properties": { "id": null, "Specs": null }, "geometry": { "type": "MultiPolygon", "coordinates": [ [ [ [ 124.222733525076649, 7.342019499166394 ], [ 124.222635644209745, 7.341966499871011 ], [ 124.222564683489011, 7.341973272983674 ], [ 124.222560269206326, 7.34210066594343 ], [ 124.222632737730763, 7.342151515279976 ], [ 124.222733525076649, 7.342019499166394 ] ] ] ] } },
{ "type": "Feature", "properties": { "id": null, "Specs": null }, "geometry": { "type": "MultiPolygon", "coordinates": [ [ [ [ 124.222378721411886, 7.342053364704064 ], [ 124.222330695919183, 7.34194070007744 ], [ 124.222272441368972, 7.341948548139649 ], [ 124.222230554217276, 7.341989722561129 ], [ 124.222226247229401, 7.342040464750344 ], [ 124.222378721411886, 7.342053364704064 ] ] ] ] } },
{ "type": "Feature", "properties": { "id": null, "Specs": null }, "geometry": { "type": "MultiPolygon", "coordinates": [ [ [ [ 124.22237280090792, 7.34250004632893 ], [ 124.222374523374683, 7.342404367231045 ], [ 124.222290425380749, 7.342339757313284 ], [ 124.222227325420675, 7.342404690341422 ], [ 124.222231417647009, 7.342507249715601 ], [ 124.22237280090792, 7.34250004632893 ] ] ] ] } },
{ "type": "Feature", "properties": { "id": null, "Specs": null }, "geometry": { "type": "MultiPolygon", "coordinates": [ [ [ [ 124.219842978739749, 7.355153884601301 ], [ 124.219750770605046, 7.355080571298758 ], [ 124.219619084488102, 7.355085808364731 ], [ 124.219584852184127, 7.355295827112183 ], [ 124.219724544748388, 7.355389535812665 ], [ 124.219842978739749, 7.355153884601301 ] ] ] ] } },
{ "type": "Feature", "properties": { "id": null, "Specs": null }, "geometry": { "type": "MultiPolygon", "coordinates": [ [ [ [ 124.224040191231595, 7.345577718872789 ], [ 124.223877650689317, 7.34545863327015 ], [ 124.223773542319393, 7.34555516074912 ], [ 124.223824065233416, 7.345750952969866 ], [ 124.223943831752706, 7.345808964549105 ], [ 124.224077316624701, 7.345705346324916 ], [ 124.224040191231595, 7.345577718872789 ] ] ] ] } },
{ "type": "Feature", "properties": { "id": null, "Specs": null }, "geometry": { "type": "MultiPolygon", "coordinates": [ [ [ [ 124.223371955001042, 7.345540338527168 ], [ 124.223247507305814, 7.345424475300172 ], [ 124.223168093996449, 7.345456060537312 ], [ 124.223115636236514, 7.345509078026699 ], [ 124.223136942936165, 7.34559706373359 ], [ 124.223251060505405, 7.345721628961148 ], [ 124.223371955001042, 7.345540338527168 ] ] ] ] } },
{ "type": "Feature", "properties": { "id": null, "Specs": null }, "geometry": { "type": "MultiPolygon", "coordinates": [ [ [ [ 124.224432394010975, 7.343216923464458 ], [ 124.224209487773237, 7.343131034507579 ], [ 124.224085526732608, 7.34323545830253 ], [ 124.224060024764512, 7.343309908067545 ], [ 124.22403613672023, 7.343365342564992 ], [ 124.22392428009114, 7.343327151820817 ], [ 124.223801286409866, 7.343307170656146 ], [ 124.223755931161477, 7.343389516731266 ], [ 124.223801772353653, 7.343527457553348 ], [ 124.223900071059347, 7.343612380836074 ], [ 124.224072294422186, 7.343617374947325 ], [ 124.224143798129134, 7.343565968696074 ], [ 124.224238382883456, 7.343468635565041 ], [ 124.224376548444425, 7.343422868812626 ], [ 124.224432394010975, 7.343216923464458 ] ] ] ] } },
{ "type": "Feature", "properties": { "id": null, "Specs": null }, "geometry": { "type": "MultiPolygon", "coordinates": [ [ [ [ 124.222150235575299, 7.343435614006277 ], [ 124.22201771872993, 7.343414826651903 ], [ 124.221973977134709, 7.343478157328061 ], [ 124.222038218046237, 7.343512320108047 ], [ 124.222126347273388, 7.343491048441937 ], [ 124.222150235575299, 7.343435614006277 ] ] ] ] } },
{ "type": "Feature", "properties": { "id": null, "Specs": null }, "geometry": { "type": "MultiPolygon", "coordinates": [ [ [ [ 124.222163147667317, 7.343283491816581 ], [ 124.222250952612356, 7.342927035773722 ], [ 124.222303410239348, 7.342874018412521 ], [ 124.222260797602715, 7.342698046799154 ], [ 124.22210116467005, 7.34277072441973 ], [ 124.222038861933441, 7.343052730746517 ], [ 124.222023528765774, 7.343233375851327 ], [ 124.222020300730435, 7.343271406399717 ], [ 124.222046449093099, 7.343302346397981 ], [ 124.222163147667317, 7.343283491816581 ] ] ] ] } },
{ "type": "Feature", "properties": { "id": null, "Specs": null }, "geometry": { "type": "MultiPolygon", "coordinates": [ [ [ [ 124.223508976203988, 7.343473959189869 ], [ 124.223375652370947, 7.343462679883785 ], [ 124.223360480383434, 7.343528427660957 ], [ 124.223440539731172, 7.34360223209138 ], [ 124.223470723086749, 7.343585633814127 ], [ 124.223508976203988, 7.343473959189869 ] ] ] ] } },
{ "type": "Feature", "properties": { "id": null, "Specs": null }, "geometry": { "type": "MultiPolygon", "coordinates": [ [ [ [ 124.223525272380002, 7.342603930456407 ], [ 124.223394530407788, 7.342449230920268 ], [ 124.223258785931051, 7.342466474434012 ], [ 124.222949365256184, 7.34238284132378 ], [ 124.222743891847216, 7.342317578151712 ], [ 124.222528734491092, 7.342366406511506 ], [ 124.222506460274261, 7.342402825679988 ], [ 124.222341017548317, 7.342656954152389 ], [ 124.222392507227937, 7.342728341752087 ], [ 124.222804261432358, 7.342849360630321 ], [ 124.223347886178928, 7.342885776454734 ], [ 124.223525272380002, 7.342603930456407 ] ] ] ] } },
{ "type": "Feature", "properties": { "id": null, "Specs": null }, "geometry": { "type": "MultiPolygon", "coordinates": [ [ [ [ 124.220008341272745, 7.350024573124576 ], [ 124.2200188328015, 7.349900973807928 ], [ 124.220020446882828, 7.349881958528447 ], [ 124.219957012124269, 7.349838287954436 ], [ 124.219809320736331, 7.349883248014172 ], [ 124.219625634733902, 7.350126257031202 ], [ 124.219531693374563, 7.350328979329634 ], [ 124.219662598232944, 7.35036878237434 ], [ 124.219810289795973, 7.350323822335066 ], [ 124.220008341272745, 7.350024573124576 ] ] ] ] } },
{ "type": "Feature", "properties": { "id": null, "Specs": null }, "geometry": { "type": "MultiPolygon", "coordinates": [ [ [ [ 124.226536010386567, 7.338916755511856 ], [ 124.22630356353261, 7.338822061638071 ], [ 124.226166852264498, 7.338750472538786 ], [ 124.226080349587178, 7.3387956753802 ], [ 124.226095147210458, 7.33888696279189 ], [ 124.226122338932157, 7.339009310564637 ], [ 124.226247288427146, 7.339042389830468 ], [ 124.22633998817787, 7.339012717129386 ], [ 124.22633998817787, 7.339012717129386 ], [ 124.226536010386567, 7.338916755511856 ] ] ] ] } },
{ "type": "Feature", "properties": { "id": null, "Specs": null }, "geometry": { "type": "MultiPolygon", "coordinates": [ [ [ [ 124.225831213242188, 7.339074717592979 ], [ 124.225755965539449, 7.339075854750832 ], [ 124.225697412165061, 7.339145930898188 ], [ 124.225762669315785, 7.339173960427135 ], [ 124.225900770669114, 7.339140625721072 ], [ 124.225831213242188, 7.339074717592979 ] ] ] ] } },
{ "type": "Feature", "properties": { "id": null, "Specs": null }, "geometry": { "type": "MultiPolygon", "coordinates": [ [ [ [ 124.225940477090077, 7.338761333593593 ], [ 124.225834118777016, 7.338774844788832 ], [ 124.225786820518977, 7.338800855304848 ], [ 124.225783026989063, 7.338845552171621 ], [ 124.225853848876369, 7.338896561359511 ], [ 124.22598942113035, 7.338893024550346 ], [ 124.225940477090077, 7.338761333593593 ] ] ] ] } },
{ "type": "Feature", "properties": { "id": null, "Specs": null }, "geometry": { "type": "MultiPolygon", "coordinates": [ [ [ [ 124.225162307656845, 7.342688237464897 ], [ 124.224828497375384, 7.342697991137777 ], [ 124.22471514583431, 7.34268840179262 ], [ 124.224514220323073, 7.342813878607084 ], [ 124.224506857504679, 7.343012720494437 ], [ 124.224579864979631, 7.343161371655311 ], [ 124.22469241623098, 7.343180391622888 ], [ 124.22477918978278, 7.343054756005892 ], [ 124.224941531022097, 7.342935513246995 ], [ 124.225221066877893, 7.342892673033657 ], [ 124.225162307656845, 7.342688237464897 ] ] ] ] } },
{ "type": "Feature", "properties": { "id": null, "Specs": null }, "geometry": { "type": "MultiPolygon", "coordinates": [ [ [ [ 124.223616679239896, 7.34061032129738 ], [ 124.223552959134381, 7.340576435453765 ], [ 124.223464744089256, 7.34060696557606 ], [ 124.223533907899792, 7.340688803628435 ], [ 124.223616679239896, 7.34061032129738 ] ] ] ] } },
{ "type": "Feature", "properties": { "id": null, "Specs": null }, "geometry": { "type": "MultiPolygon", "coordinates": [ [ [ [ 124.223810081596582, 7.340797653389574 ], [ 124.223793591062957, 7.34076776328183 ], [ 124.223797593249586, 7.340720610233936 ], [ 124.223698331401607, 7.340769202483814 ], [ 124.223699772932363, 7.340864307722759 ], [ 124.223727310267094, 7.340876135755765 ], [ 124.223810081596582, 7.340797653389574 ] ] ] ] } },
{ "type": "Feature", "properties": { "id": null, "Specs": null }, "geometry": { "type": "MultiPolygon", "coordinates": [ [ [ [ 124.224035305961536, 7.350211117578551 ], [ 124.223846464031368, 7.350195142325287 ], [ 124.223687227960994, 7.350110464503277 ], [ 124.2231699129742, 7.350042965460118 ], [ 124.222925859628049, 7.350117261794642 ], [ 124.222917858641082, 7.350211527685306 ], [ 124.223100699900016, 7.350298202749587 ], [ 124.223501989149767, 7.350332150726397 ], [ 124.223810857599375, 7.350334544225957 ], [ 124.224035305961536, 7.350211117578551 ] ] ] ] } }
]
}
