{
"type": "FeatureCollection",
"name": "MNLF Camp",
"crs": { "type": "name", "properties": { "name": "urn:ogc:def:crs:OGC:1.3:CRS84" } },
"features": [
{ "type": "Feature", "properties": { "id": null, "Data": null }, "geometry": { "type": "MultiPolygon", "coordinates": [ [ [ [ 124.221465033542941, 7.344004449705708 ], [ 124.222614612324065, 7.344180530461058 ], [ 124.22282901799997, 7.344444988973791 ], [ 124.223150042632, 7.344383473117077 ], [ 124.223365939915084, 7.344165271669599 ], [ 124.223476544618137, 7.343908604065493 ], [ 124.224227871485553, 7.343893343911025 ], [ 124.224489439184296, 7.343718416841424 ], [ 124.224642558136935, 7.343425934712766 ], [ 124.224815603641602, 7.342898671978655 ], [ 124.225272974775393, 7.342858542356223 ], [ 124.225287254165806, 7.342574020254756 ], [ 124.22510673073289, 7.342608012257591 ], [ 124.224875554452126, 7.342657424593535 ], [ 124.224659488190795, 7.342412532145506 ], [ 124.224382970946763, 7.34218223095023 ], [ 124.223966784970983, 7.341969671797632 ], [ 124.223457431574232, 7.341808346680629 ], [ 124.223291357802267, 7.342020910311596 ], [ 124.22310684809986, 7.34198559483765 ], [ 124.222848268012839, 7.341776515518378 ], [ 124.222762738590916, 7.341621487806373 ], [ 124.222673057582867, 7.341515372708284 ], [ 124.222615927672521, 7.34149083375047 ], [ 124.222249401911469, 7.341972168653643 ], [ 124.221888356422468, 7.342621464371724 ], [ 124.221582613665234, 7.343433083439627 ], [ 124.221465033542941, 7.344004449705708 ] ] ] ] } }
]
}
