{
"type": "FeatureCollection",
"name": "PFEZ-MDP",
"crs": { "type": "name", "properties": { "name": "urn:ogc:def:crs:OGC:1.3:CRS84" } },
"features": [
{ "type": "Feature", "properties": { "Facility": "Administration Building", "Area": "780 sqm.", "Location": "780 sqm." }, "geometry": { "type": "Point", "coordinates": [ 124.221417685017897, 7.353102645594002 ] } },
{ "type": "Feature", "properties": { "Facility": "Barter Trade", "Area": "648 sq.m", "Location": "648 sq.m" }, "geometry": { "type": "Point", "coordinates": [ 124.221348534930456, 7.350927977055107 ] } },
{ "type": "Feature", "properties": { "Facility": "Transit Shed 1", "Area": "5980 sq.m", "Location": "5980 sq.m" }, "geometry": { "type": "Point", "coordinates": [ 124.224168702946088, 7.351442789082103 ] } },
{ "type": "Feature", "properties": { "Facility": "Transit Shed 2", "Area": "5980 sq.m", "Location": "5980 sq.m" }, "geometry": { "type": "Point", "coordinates": [ 124.224047609425455, 7.352918242292946 ] } },
{ "type": "Feature", "properties": { "Facility": "Terminal Building", "Area": "800 sq.m", "Location": "800 sq.m" }, "geometry": { "type": "Point", "coordinates": [ 124.222592650458751, 7.35104783018183 ] } },
{ "type": "Feature", "properties": { "Facility": "Port Canteen", "Area": "480m sq.m", "Location": "480m sq.m" }, "geometry": { "type": "Point", "coordinates": [ 124.222712369414111, 7.350743595003518 ] } },
{ "type": "Feature", "properties": { "Facility": "Gate 1", "Area": "16 sq.m", "Location": "16 sq.m" }, "geometry": { "type": "Point", "coordinates": [ 124.222485705537977, 7.350315717840527 ] } },
{ "type": "Feature", "properties": { "Facility": "Gate 1", "Area": "16 sq.m", "Location": "16 sq.m" }, "geometry": { "type": "Point", "coordinates": [ 124.222210816339626, 7.353748481562055 ] } },
{ "type": "Feature", "properties": { "Facility": "Main Gate", "Area": "48 sq.m", "Location": "48 sq.m" }, "geometry": { "type": "Point", "coordinates": [ 124.226680597238058, 7.338984684319517 ] } },
{ "type": "Feature", "properties": { "Facility": "Weighbridge Station", "Area": "19.25 sq.m", "Location": "19.25 sq.m" }, "geometry": { "type": "Point", "coordinates": [ 124.222862912217863, 7.35128127355372 ] } },
{ "type": "Feature", "properties": { "Facility": "Pilotage Office", "Area": "48 sq. m", "Location": "48 sq. m" }, "geometry": { "type": "Point", "coordinates": [ 124.223559871305, 7.352902240621987 ] } },
{ "type": "Feature", "properties": { "Facility": "Phil Coast Guard Office", "Area": "48sq.m", "Location": "48sq.m" }, "geometry": { "type": "Point", "coordinates": [ 124.223716783678128, 7.351396836396916 ] } },
{ "type": "Feature", "properties": { "Facility": "Main Wharf", "Area": "447 meters", "Location": "447 meters" }, "geometry": { "type": "Point", "coordinates": [ 124.224427362323681, 7.352181374442352 ] } },
{ "type": "Feature", "properties": { "Facility": "Lighter Dock- Right", "Area": "67 meters", "Location": "67 meters" }, "geometry": { "type": "Point", "coordinates": [ 124.224398701718059, 7.350424615287986 ] } },
{ "type": "Feature", "properties": { "Facility": "Lighter Dock -Left", "Area": "67 meters", "Location": "67 meters" }, "geometry": { "type": "Point", "coordinates": [ 124.224071891404492, 7.353931822539923 ] } },
{ "type": "Feature", "properties": { "Facility": "Ro-Ro Wharf", "Area": "162 sq.m", "Location": "162 sq.m" }, "geometry": { "type": "Point", "coordinates": [ 124.224930194240912, 7.348291205186618 ] } },
{ "type": "Feature", "properties": { "Facility": "Submersible Pump 1", "Area": "3 Phase -20HP", "Location": "3 Phase -20HP" }, "geometry": { "type": "Point", "coordinates": [ 124.245022196072313, 7.334128569711142 ] } },
{ "type": "Feature", "properties": { "Facility": "Submersible Pump 2", "Area": "3 Phase , 20HP", "Location": "3 Phase , 20HP" }, "geometry": { "type": "Point", "coordinates": [ 124.244068204193809, 7.334435455632815 ] } },
{ "type": "Feature", "properties": { "Facility": "Water Reservoir 2", "Area": "883.57 cu.m", "Location": "883.57 cu.m" }, "geometry": { "type": "Point", "coordinates": [ 124.243060065568955, 7.334703398059506 ] } },
{ "type": "Feature", "properties": { "Facility": "Water Reservoir 1", "Area": "140 cu.m", "Location": "140 cu.m" }, "geometry": { "type": "Point", "coordinates": [ 124.223724291598472, 7.35199960281136 ] } },
{ "type": "Feature", "properties": { "Facility": "Power House 1", "Area": "180 sq.m", "Location": "180 sq.m" }, "geometry": { "type": "Point", "coordinates": [ 124.221649532814325, 7.350459732587868 ] } },
{ "type": "Feature", "properties": { "Facility": "Loading Center 1", "Area": "Signle Phase Panel Board", "Location": "Signle Phase Panel Board" }, "geometry": { "type": "Point", "coordinates": [ 124.222342018891482, 7.352199455058469 ] } },
{ "type": "Feature", "properties": { "Facility": "Power House 2", "Area": "9sq.m", "Location": "9sq.m" }, "geometry": { "type": "Point", "coordinates": [ 124.243938444019179, 7.334236230799488 ] } },
{ "type": "Feature", "properties": { "Facility": "Loading Center 2", "Area": "Single Phase Panel Board", "Location": "Single Phase Panel Board" }, "geometry": { "type": "Point", "coordinates": [ 124.221434556325633, 7.351125369185503 ] } },
{ "type": "Feature", "properties": { "Facility": "Private Warehouse (Isulan ECT)", "Area": "900sq.m", "Location": "900sq.m" }, "geometry": { "type": "Point", "coordinates": [ 124.221008059425913, 7.349265060710716 ] } },
{ "type": "Feature", "properties": { "Facility": "Port Locator (Power Up Ventures Inc.)", "Area": "4600 sq.m", "Location": "4600 sq.m" }, "geometry": { "type": "Point", "coordinates": [ 124.223001480924339, 7.354054554366516 ] } },
{ "type": "Feature", "properties": { "Facility": "Cargo Handler (BTSI)", "Area": "4500 sq.m", "Location": "4500 sq.m" }, "geometry": { "type": "Point", "coordinates": [ 124.220188273928926, 7.354516689253458 ] } },
{ "type": "Feature", "properties": { "Facility": "Warehouse (World Food Program)", "Area": "2500 sq.m", "Location": "2500 sq.m" }, "geometry": { "type": "Point", "coordinates": [ 124.222595074070753, 7.351682012316116 ] } },
{ "type": "Feature", "properties": { "Facility": "PSACC Office", "Area": "48 sq.m", "Location": "48 sq.m" }, "geometry": { "type": "Point", "coordinates": [ 124.223505636378277, 7.353439351248064 ] } },
{ "type": "Feature", "properties": { "Facility": "Lorenzo Shipping Corp. (office)", "Area": "48sq.m", "Location": "48sq.m" }, "geometry": { "type": "Point", "coordinates": [ 124.223567518543319, 7.352526640161619 ] } },
{ "type": "Feature", "properties": { "Facility": "Container yard", "Area": "9 Hectares", "Location": "9 Hectares" }, "geometry": { "type": "Point", "coordinates": [ 124.223122214273545, 7.352815695863204 ] } }
]
}
