{
"type": "FeatureCollection",
"name": "Sitio Sampinitan",
"crs": { "type": "name", "properties": { "name": "urn:ogc:def:crs:OGC:1.3:CRS84" } },
"features": [
{ "type": "Feature", "properties": { "id": null, "Data": "42 Households" }, "geometry": { "type": "MultiPolygon", "coordinates": [ [ [ [ 124.22029802246297, 7.352190545865656 ], [ 124.220264251122842, 7.35153590771385 ], [ 124.220301960279755, 7.351003948740361 ], [ 124.220374715758652, 7.350673064665592 ], [ 124.220555371671765, 7.349246418795389 ], [ 124.22079202790276, 7.347423148889866 ], [ 124.220746549804986, 7.347344974939716 ], [ 124.220685035473196, 7.347280309496849 ], [ 124.220587063837328, 7.347294318499451 ], [ 124.220463134923989, 7.347351007931311 ], [ 124.220332590151529, 7.347748757836637 ], [ 124.219872424541691, 7.349047698950071 ], [ 124.219505968975099, 7.349418056780533 ], [ 124.219201654137834, 7.351599802043832 ], [ 124.22029802246297, 7.352190545865656 ] ] ] ] } }
]
}
