{
"type": "FeatureCollection",
"name": "Sitio Lagpond",
"crs": { "type": "name", "properties": { "name": "urn:ogc:def:crs:OGC:1.3:CRS84" } },
"features": [
{ "type": "Feature", "properties": { "id": null, "Data": "54 Households" }, "geometry": { "type": "MultiPolygon", "coordinates": [ [ [ [ 124.22126735648942, 7.345214504939032 ], [ 124.222171795382039, 7.345389357424697 ], [ 124.222736034044516, 7.345510843306684 ], [ 124.223049714969108, 7.345586547781193 ], [ 124.223370854749561, 7.345671077492885 ], [ 124.223820595550038, 7.346561349122558 ], [ 124.223939378754579, 7.346128897116924 ], [ 124.223571135558686, 7.345728993461588 ], [ 124.224031642122839, 7.345718784972702 ], [ 124.223926802965394, 7.34540672071416 ], [ 124.223480935784892, 7.345147750234693 ], [ 124.223346540477507, 7.345087213618759 ], [ 124.223331619420776, 7.344586089011204 ], [ 124.223183134812331, 7.344401443366702 ], [ 124.222950119860315, 7.344439091294563 ], [ 124.222799288645319, 7.344475497537564 ], [ 124.222591134327487, 7.344220247725571 ], [ 124.222308670528989, 7.344163572669403 ], [ 124.22204112423438, 7.344124548434751 ], [ 124.221731450193829, 7.344098348786811 ], [ 124.221440146580576, 7.344049119730614 ], [ 124.22126735648942, 7.345214504939032 ] ] ] ] } }
]
}
