{
"type": "FeatureCollection",
"name": "Sitio Kabingaan",
"crs": { "type": "name", "properties": { "name": "urn:ogc:def:crs:OGC:1.3:CRS84" } },
"features": [
{ "type": "Feature", "properties": { "id": null, "Data": "172 Households" }, "geometry": { "type": "MultiPolygon", "coordinates": [ [ [ [ 124.221306851908679, 7.350126754908742 ], [ 124.222818019146516, 7.350282914589854 ], [ 124.222904286149046, 7.350268976575956 ], [ 124.222931967356871, 7.350193452825242 ], [ 124.222898080129184, 7.350091484440214 ], [ 124.222691659007168, 7.350017392029238 ], [ 124.222361982451588, 7.349975344285745 ], [ 124.222437387068311, 7.349337562978973 ], [ 124.222569703339218, 7.348279875189023 ], [ 124.222597381700396, 7.347786708687332 ], [ 124.222545714595242, 7.347393009821747 ], [ 124.222161509460591, 7.346907469548984 ], [ 124.221848538751871, 7.346668630845037 ], [ 124.22135492179514, 7.346386193736881 ], [ 124.221467792490728, 7.34539056866675 ], [ 124.221253140959021, 7.345329936036554 ], [ 124.221083117267426, 7.346497693122523 ], [ 124.221112231167751, 7.34665588754651 ], [ 124.221234651284263, 7.346800739961004 ], [ 124.221511349031829, 7.346965723419901 ], [ 124.221666581807312, 7.347141666477497 ], [ 124.221306851908679, 7.350126754908742 ] ] ] ] } }
]
}
