{
"type": "FeatureCollection",
"name": "Sitio Punol",
"crs": { "type": "name", "properties": { "name": "urn:ogc:def:crs:OGC:1.3:CRS84" } },
"features": [
{ "type": "Feature", "properties": { "id": null, "Data": "82 Households" }, "geometry": { "type": "MultiPolygon", "coordinates": [ [ [ [ 124.221095300227574, 7.345233119639778 ], [ 124.221249449955096, 7.344208995501253 ], [ 124.221421698727411, 7.343259614403919 ], [ 124.221657706351564, 7.342638979431672 ], [ 124.221978656027431, 7.342025530995596 ], [ 124.222281197835585, 7.341556948516446 ], [ 124.222573455988339, 7.341209515406214 ], [ 124.222475350629054, 7.341213417232037 ], [ 124.221746347940197, 7.341450687716142 ], [ 124.221238236088695, 7.341749352980014 ], [ 124.220911835055361, 7.342283027166395 ], [ 124.22065484819467, 7.343438773132607 ], [ 124.220345002753518, 7.345145236088346 ], [ 124.221095300227574, 7.345233119639778 ] ] ] ] } }
]
}
