{
"type": "FeatureCollection",
"name": "Sitio Olvido",
"crs": { "type": "name", "properties": { "name": "urn:ogc:def:crs:OGC:1.3:CRS84" } },
"features": [
{ "type": "Feature", "properties": { "id": null, "Data": "123 Households" }, "geometry": { "type": "MultiPolygon", "coordinates": [ [ [ [ 124.222790933542285, 7.340965345716415 ], [ 124.223043664747209, 7.340761475865131 ], [ 124.223919556284002, 7.340150029695799 ], [ 124.224667017242595, 7.339664826828555 ], [ 124.225749745125711, 7.339159018470947 ], [ 124.226582054276932, 7.338945416852988 ], [ 124.226404595351326, 7.338724740134896 ], [ 124.223679195233032, 7.338474584235526 ], [ 124.222717134775792, 7.338598854603713 ], [ 124.22193814427844, 7.339571064909568 ], [ 124.221535689284792, 7.340036486239471 ], [ 124.221494585815464, 7.340405164037107 ], [ 124.222129304860573, 7.340439278079128 ], [ 124.222348528272121, 7.340976884165741 ], [ 124.222790933542285, 7.340965345716415 ] ] ] ] } }
]
}
