{
"type": "FeatureCollection",
"name": "Sitio Dapdap",
"crs": { "type": "name", "properties": { "name": "urn:ogc:def:crs:OGC:1.3:CRS84" } },
"features": [
{ "type": "Feature", "properties": { "id": null, "Data": "35 Households" }, "geometry": { "type": "MultiPolygon", "coordinates": [ [ [ [ 124.21846525272008, 7.357328866043551 ], [ 124.220604758020457, 7.355629417795044 ], [ 124.218823442545386, 7.354073946577984 ], [ 124.218664330448306, 7.355071323066675 ], [ 124.21911460741164, 7.355116851153403 ], [ 124.219294392575108, 7.355191522704403 ], [ 124.218781223079901, 7.356062320310605 ], [ 124.21859504814212, 7.356150625959811 ], [ 124.21846525272008, 7.357328866043551 ] ] ] ] } }
]
}
