{
"type": "FeatureCollection",
"name": "Sitio Canteen",
"crs": { "type": "name", "properties": { "name": "urn:ogc:def:crs:OGC:1.3:CRS84" } },
"features": [
{ "type": "Feature", "properties": { "id": null, "Data": "38 Households" }, "geometry": { "type": "MultiPolygon", "coordinates": [ [ [ [ 124.221361081457843, 7.355015687917289 ], [ 124.222150500759341, 7.354398670276001 ], [ 124.222190712789754, 7.353837193017491 ], [ 124.221728159166403, 7.353760898652604 ], [ 124.221362450559965, 7.353596172745685 ], [ 124.220921194411005, 7.35326896996128 ], [ 124.220710213207994, 7.35303557453429 ], [ 124.220578663043881, 7.352831196862403 ], [ 124.220434834969709, 7.352596049867521 ], [ 124.220316439486083, 7.352236699771085 ], [ 124.219184991278397, 7.351620690170244 ], [ 124.219037656746366, 7.35256703456229 ], [ 124.221361081457843, 7.355015687917289 ] ] ] ] } }
]
}
