{
"type": "FeatureCollection",
"name": "Street Lights",
"crs": { "type": "name", "properties": { "name": "urn:ogc:def:crs:OGC:1.3:CRS84" } },
"features": [
{ "type": "Feature", "properties": { "id": null, "lights": null }, "geometry": { "type": "Point", "coordinates": [ 124.221291894345669, 7.345367339764807 ] } },
{ "type": "Feature", "properties": { "id": null, "lights": null }, "geometry": { "type": "Point", "coordinates": [ 124.22297933605428, 7.345686759792859 ] } },
{ "type": "Feature", "properties": { "id": null, "lights": null }, "geometry": { "type": "Point", "coordinates": [ 124.22418132861786, 7.347987533234355 ] } },
{ "type": "Feature", "properties": { "id": null, "lights": null }, "geometry": { "type": "Point", "coordinates": [ 124.224905017949638, 7.347872096523981 ] } },
{ "type": "Feature", "properties": { "id": null, "lights": null }, "geometry": { "type": "Point", "coordinates": [ 124.224430946863151, 7.348209674437597 ] } },
{ "type": "Feature", "properties": { "id": null, "lights": null }, "geometry": { "type": "Point", "coordinates": [ 124.223401143559499, 7.34553360349903 ] } },
{ "type": "Feature", "properties": { "id": null, "lights": null }, "geometry": { "type": "Point", "coordinates": [ 124.223599223993403, 7.346866157989385 ] } },
{ "type": "Feature", "properties": { "id": null, "lights": null }, "geometry": { "type": "Point", "coordinates": [ 124.224176490152331, 7.346750518927251 ] } },
{ "type": "Feature", "properties": { "id": null, "lights": null }, "geometry": { "type": "Point", "coordinates": [ 124.222078833018372, 7.345513109226324 ] } },
{ "type": "Feature", "properties": { "id": null, "lights": null }, "geometry": { "type": "Point", "coordinates": [ 124.223299599074906, 7.346298652886841 ] } },
{ "type": "Feature", "properties": { "id": null, "lights": null }, "geometry": { "type": "Point", "coordinates": [ 124.223893304966069, 7.347427102025199 ] } },
{ "type": "Feature", "properties": { "id": null, "lights": null }, "geometry": { "type": "Point", "coordinates": [ 124.224521603432635, 7.347285321331393 ] } },
{ "type": "Feature", "properties": { "id": null, "lights": null }, "geometry": { "type": "Point", "coordinates": [ 124.221646755987805, 7.345427820838635 ] } },
{ "type": "Feature", "properties": { "id": null, "lights": null }, "geometry": { "type": "Point", "coordinates": [ 124.222541200709742, 7.34560095980279 ] } },
{ "type": "Feature", "properties": { "id": null, "lights": null }, "geometry": { "type": "Point", "coordinates": [ 124.22237239379244, 7.345361287111581 ] } },
{ "type": "Feature", "properties": { "id": null, "lights": null }, "geometry": { "type": "Point", "coordinates": [ 124.221878195697286, 7.345289018312217 ] } },
{ "type": "Feature", "properties": { "id": null, "lights": null }, "geometry": { "type": "Point", "coordinates": [ 124.222907972009111, 7.34544923944272 ] } },
{ "type": "Feature", "properties": { "id": null, "lights": null }, "geometry": { "type": "Point", "coordinates": [ 124.22392861699241, 7.346364050366561 ] } },
{ "type": "Feature", "properties": { "id": null, "lights": null }, "geometry": { "type": "Point", "coordinates": [ 124.22360671099861, 7.345843393743431 ] } },
{ "type": "Feature", "properties": { "id": null, "lights": null }, "geometry": { "type": "Point", "coordinates": [ 124.223137465094894, 7.34598035368106 ] } },
{ "type": "Feature", "properties": { "id": null, "lights": null }, "geometry": { "type": "Point", "coordinates": [ 124.223741232936533, 7.34713402109462 ] } },
{ "type": "Feature", "properties": { "id": null, "lights": null }, "geometry": { "type": "Point", "coordinates": [ 124.224698935211634, 7.347568355426984 ] } },
{ "type": "Feature", "properties": { "id": null, "lights": null }, "geometry": { "type": "Point", "coordinates": [ 124.224327637521412, 7.346982604960329 ] } },
{ "type": "Feature", "properties": { "id": null, "lights": null }, "geometry": { "type": "Point", "coordinates": [ 124.223442120968429, 7.346560467928834 ] } },
{ "type": "Feature", "properties": { "id": null, "lights": null }, "geometry": { "type": "Point", "coordinates": [ 124.223766893873915, 7.346112794436422 ] } },
{ "type": "Feature", "properties": { "id": null, "lights": null }, "geometry": { "type": "Point", "coordinates": [ 124.224039319078358, 7.347719670366653 ] } },
{ "type": "Feature", "properties": { "id": null, "lights": null }, "geometry": { "type": "Point", "coordinates": [ 124.224052553514724, 7.346557284673681 ] } },
{ "type": "Feature", "properties": { "id": null, "lights": null }, "geometry": { "type": "Point", "coordinates": [ 124.22150515984211, 7.345226999784586 ] } }
]
}
